#dP2018  1 14  0  0  0.00000000      96 __u+U ITR00 FIT  IAC
## 1984      0.00000000   900.00000000 58132 0.0000000000000
+   89   C01C02C03C04C05C06C07C08C09C10C11C12C13C14E01E02E03
+        E04E05E07E08E09E11E12E14E18E19E24E26E30G01G02G03G04
+        G05G06G07G08G09G10G11G12G13G14G15G16G17G18G19G20G21
+        G22G23G24G25G26G27G28G29G30G31G32J01J02J03R01R02R03
+        R04R05R06R07R08R09R10R11R13R14R15R16R17R18R19R20R21
+        R22R23R24R26  0  0  0  0  0  0  0  0  0  0  0  0  0
++         0  0  0  0  0  0  0  0  0  0  0  0  0  0  0  0  0
++         0  0  0  0  0  0  0  0  0  0  0  0  0  0  0  0  0
++         0  0  0  0  0  0  0  0  0  0  0  0  0  0  0  0  0
++         0  0  0  0  0  0  0  0  0  0  0  0  0  0  0  0  0
++         0  0  0  0  0  0  0  0  0  0  0  0  0  0  0  0  0
++         0  0  0  0  0  0  0  0  0  0  0  0  0  0  0  0  0
%c M  cc GPS ccc cccc cccc cccc cccc ccccc ccccc ccccc ccccc
%c cc cc ccc ccc cccc cccc cccc cccc ccccc ccccc ccccc ccccc
%f  0.0000000  0.000000000  0.00000000000  0.000000000000000
%f  0.0000000  0.000000000  0.00000000000  0.000000000000000
%i    0    0    0    0      0      0      0      0         0
%i    0    0    0    0      0      0      0      0         0
/*                                                          
/*   RSA / INFORMATION & ANALYSIS CENTER (IAC) OF MCC       
/*   ULTRA-RAPID DETERMINATION                              
/* PCV:IGS14_1977 OL/AL:FES2004  NONE     YN ORB:CoN CLK:CoN
*  2018 01 14  1 15  0.00000000
PC01 -32305.098581  27063.694954  -1087.548969    236.416670
PC02      0.000000      0.000000      0.000000 999999.999999
PC03 -14689.696656  39533.540996   -521.491285 999999.999999
PC04      0.000000      0.000000      0.000000 999999.999999
PC05  21897.897051  36025.232927   1129.557122   -119.896858
PC06  -7279.863509  29572.422277  29511.898722   -673.423191
PC07 -22181.795144  22510.300700 -27969.358129 999999.999999
PC08 -20197.508711  36879.086529    -86.404456    112.661885
PC09   4325.210662  37381.549249  19455.565611   -505.541060
PC10  -5359.083317  25420.762386 -33128.618397     57.867122
PC11  14216.473624 -14229.819580  19438.698539   -351.703645
PC12  14480.423191   7897.404848  22553.556768    371.120252
PC13 -10140.734292  38531.534208  13449.347850   -144.645226
PC14  19618.545047  -3355.990250 -19537.582666    139.641435
PE01 -29424.115274   1131.580570   3011.752896   -252.547813
PE02  29433.977304  -1153.007295  -2982.120840      1.653365
PE03  21416.285374   5971.853677 -19540.929498     12.837473
PE04 -11070.562277  13656.155792  23811.647351     44.522892
PE05  19246.413030  22167.453172  -3804.736883    342.189030
PE07  -5811.547447 -25354.177884 -14131.001248    102.395337
PE08  10846.303542 -13655.130615 -23921.263946   6661.832260
PE09   6069.158124  25219.118143  14249.700531   6904.217697
PE11  -4668.143527  27464.758087  10028.483390   1853.473873
PE12 -16542.948764  22919.402078  -8798.775971   3276.011845
PE14  -8814.856936 -24863.774702  -7274.932805   6648.284028
PE18  -1772.960535  29341.870002  -5449.696677   6505.841873
PE19 -21749.225199  -7866.475597  18464.893081     18.327395
PE24  -1632.748005  16323.457062 -24642.750634   6917.885932
PE26  -9800.255456 -16123.487964 -22801.080069   6388.879241
PE30  22030.060352 -12353.947272  15441.237610   6162.279897
PG01   9928.399985 -20431.028434 -13660.495491    -23.422065
PG02 -21515.996865  13420.135768  -6841.138051    228.905974
PG03   1109.954468 -15591.381777 -21497.867521    -10.333003
PG04  25254.719792   8370.826119   2185.158386     31.627171
PG05 -20799.121245   4911.320475  15796.430729    -17.028789
PG06 -20614.790421   2612.200356 -16517.948714    414.743051
PG07  -5510.947751 -14856.640751  21457.431530    251.902208
PG08   6769.449623 -20638.882375  15257.114944    -87.576635
PG09  -8444.229556 -24624.742464   5210.668447    492.806117
PG10  24165.176598  10838.985423   2906.458497    145.615706
PG11   7542.562126 -25055.238775  -5510.581160   -733.897358
PG12  -4297.785046  14131.584916 -22252.848916    355.610266
PG13 -12415.461680  13422.213495  19150.095971    -95.315191
PG14  15236.740211   3879.609438 -21151.631138    -92.337600
PG15  -4996.871445  21812.780073  13801.455948   -357.356908
PG16  20593.456173  -2675.827092  16662.783112     34.095280
PG17 -13726.675047 -13780.093510 -17768.390796   -131.051748
PG18  17098.204310  15804.832754  13527.857875    633.563904
PG19 -14963.618363  -5065.962678 -21596.807372   -463.852352
PG20  -3162.791441  15544.022181  21156.521212    498.231341
PG21   8447.077178  13802.795124  21860.273787   -442.045929
PG22   9288.464918 -13484.340486 -20676.169022   -256.061730
PG23   -576.998877 -25618.138554  -5814.430925   -219.081381
PG24 -11792.944221  21162.680119 -10658.417224    -44.733626
PG25  10079.889324  16809.072492 -18195.540414   -521.924043
PG26  25361.801714   3171.013770   7454.233768   -288.381067
PG27  13094.355106  -8621.648080  21341.721893    362.397919
PG28 -21309.853446 -14641.589650   6616.504080    679.617571
PG29   3978.107220  26234.312477   1363.661045    511.500529
PG30 -13817.905207  -8583.903816  21021.190563    112.753015
PG31  21441.336836  -3175.390849 -15577.386893    148.815840
PG32  15227.319674  12042.539486 -18133.495458   -532.784244
PJ01 -28159.520763  22038.310647  27454.474824   -156.849799
PJ02 -34988.211405  21702.643101  -4490.799650      0.016309
PJ03 -18629.418583  26464.141721 -22311.643890     -0.231546
PR01 -19854.426065 -12939.820220   9450.154119     20.638204
PR02 -12223.976676   2689.293227  22247.797571    290.052885
PR03   2143.529357  15675.180762  20052.966651    121.293307
PR04  15559.742033  19383.886594   5773.241094    245.903795
PR05  19779.558252  11778.214438 -10993.378091   -229.488751
PR06  11767.389235  -3675.738264 -22352.464818    125.103673
PR07  -2449.196628 -15829.161720 -19814.430163    -27.404050
PR08 -15207.159785 -19465.690689  -6319.615397    -26.994825
PR09  23291.161638  -8678.290217   5611.079802     47.803193
PR10  10131.082429 -12048.603885  20027.087549     15.867381
PR11  -9184.202569  -8566.742989  22223.496553    -19.335147
PR13 -22814.531967   9399.981057  -6481.997217     -6.497014
PR14 -10436.388320  12299.882359 -19748.371777     23.832553
PR15   5561.294382   9465.442160 -23022.792190     -5.174891
PR16  22547.523247   -299.477155 -12057.890387     83.220511
PR17  -7301.014404  24391.593319  -1193.035845    100.824647
PR18   1431.048994  20660.716794  14953.018795    180.994012
PR19   9416.989019   5162.299468  23142.888498    -41.132013
PR20  12331.752059 -14281.350884  17151.248042   -323.296388
PR21   7188.089507 -24468.344094   1011.465842     18.749758
PR22  -2339.309617 -19387.681669 -16326.560086    -10.048247
PR23 -10546.910009  -1484.477293 -23179.414997    130.123260
PR24 -12064.084087  15056.647314 -16711.284989   -161.045360
PR26  12102.473951 -14531.864638  17145.472799 999999.999999
EOF
